ONEWEB-0593             
1 54659U 22166T   23362.56405005  .00000020  00000+0  15900-4 0  9997
2 54659  87.9241  63.4651 0001584  95.0962 265.0353 13.21826973 52436
ONEWEB-0594             
1 54660U 22166U   23362.58296677 -.00000142  00000+0 -37651-3 0  9997
2 54660  87.9240  63.4564 0001815 108.4317 251.7015 13.21825097 52455
ONEWEB-0595             
1 54661U 22166V   23362.71228399  .00000036  00000+0  54465-4 0  9992
2 54661  87.9236  63.4222 0002121 102.5990 257.5381 13.21823964 52917
ONEWEB-0596             
1 54662U 22166W   23362.60978589  .00000086  00000+0  17682-3 0  9998
2 54662  87.9240  63.4448 0001701  87.4531 272.6798 13.21828509 52435
ONEWEB-0597             
1 54663U 22166X   23362.59085153  .00000068  00000+0  13245-3 0  9994
2 54663  87.9240  63.4495 0001404  98.1308 261.9986 13.21827139 52437
ONEWEB-0600             
1 54664U 22166Y   23362.57351335  .00000027  00000+0  33355-4 0  9991
2 54664  87.9233  63.5033 0001489 101.9424 258.1877 13.21826037 52404
ONEWEB-0601             
1 54665U 22166Z   23362.56564622  .00000417  00000+0  97699-3 0  9999
2 54665  87.9241  63.4561 0001347  81.3903 278.7383 13.21825558 52592
ONEWEB-0602             
1 54666U 22166AA  23362.68231967  .00000067  00000+0  12990-3 0  9998
2 54666  87.9240  63.4387 0001432  96.1226 264.0071 13.21827088 52924
